<?xml version="1.0" encoding="UTF-8"?>
<ndm xmlns:xsi="http://www.w3.org/2001/XMLSchema-instance" xsi:noNamespaceSchemaLocation="https://sanaregistry.org/r/ndmxml_unqualified/ndmxml-2.0.0-master-2.0.xsd">
<omm id="CCSDS_OMM_VERS" version="2.0">
<header><CREATION_DATE/><ORIGINATOR/></header><body><segment><metadata><OBJECT_NAME>ONEWEB-0053</OBJECT_NAME><OBJECT_ID>2020-008AC</OBJECT_ID><CENTER_NAME>EARTH</CENTER_NAME><REF_FRAME>TEME</REF_FRAME><TIME_SYSTEM>UTC</TIME_SYSTEM><MEAN_ELEMENT_THEORY>SGP4</MEAN_ELEMENT_THEORY></metadata><data><meanElements><EPOCH>2024-01-04T14:17:34.614528</EPOCH><MEAN_MOTION>13.10369044</MEAN_MOTION><ECCENTRICITY>.0001266</ECCENTRICITY><INCLINATION>87.8893</INCLINATION><RA_OF_ASC_NODE>213.9757</RA_OF_ASC_NODE><ARG_OF_PERICENTER>86.1929</ARG_OF_PERICENTER><MEAN_ANOMALY>273.9343</MEAN_ANOMALY></meanElements><tleParameters><EPHEMERIS_TYPE>0</EPHEMERIS_TYPE><CLASSIFICATION_TYPE>U</CLASSIFICATION_TYPE><NORAD_CAT_ID>45157</NORAD_CAT_ID><ELEMENT_SET_NO>999</ELEMENT_SET_NO><REV_AT_EPOCH>19075</REV_AT_EPOCH><BSTAR>-.14217E-2</BSTAR><MEAN_MOTION_DOT>-.484E-5</MEAN_MOTION_DOT><MEAN_MOTION_DDOT>0</MEAN_MOTION_DDOT></tleParameters></data></segment></body></omm>
<omm id="CCSDS_OMM_VERS" version="2.0">
<header><CREATION_DATE/><ORIGINATOR/></header><body><segment><metadata><OBJECT_NAME>ONEWEB-0054</OBJECT_NAME><OBJECT_ID>2020-008AD</OBJECT_ID><CENTER_NAME>EARTH</CENTER_NAME><REF_FRAME>TEME</REF_FRAME><TIME_SYSTEM>UTC</TIME_SYSTEM><MEAN_ELEMENT_THEORY>SGP4</MEAN_ELEMENT_THEORY></metadata><data><meanElements><EPOCH>2024-01-04T22:28:54.021504</EPOCH><MEAN_MOTION>13.10376194</MEAN_MOTION><ECCENTRICITY>.0001411</ECCENTRICITY><INCLINATION>87.8897</INCLINATION><RA_OF_ASC_NODE>213.8934</RA_OF_ASC_NODE><ARG_OF_PERICENTER>85.7457</ARG_OF_PERICENTER><MEAN_ANOMALY>274.3832</MEAN_ANOMALY></meanElements><tleParameters><EPHEMERIS_TYPE>0</EPHEMERIS_TYPE><CLASSIFICATION_TYPE>U</CLASSIFICATION_TYPE><NORAD_CAT_ID>45158</NORAD_CAT_ID><ELEMENT_SET_NO>999</ELEMENT_SET_NO><REV_AT_EPOCH>19091</REV_AT_EPOCH><BSTAR>.97993E-3</BSTAR><MEAN_MOTION_DOT>.355E-5</MEAN_MOTION_DOT><MEAN_MOTION_DDOT>0</MEAN_MOTION_DDOT></tleParameters></data></segment></body></omm>
<omm id="CCSDS_OMM_VERS" version="2.0">
<header><CREATION_DATE/><ORIGINATOR/></header><body><segment><metadata><OBJECT_NAME>ONEWEB-0056</OBJECT_NAME><OBJECT_ID>2020-008AE</OBJECT_ID><CENTER_NAME>EARTH</CENTER_NAME><REF_FRAME>TEME</REF_FRAME><TIME_SYSTEM>UTC</TIME_SYSTEM><MEAN_ELEMENT_THEORY>SGP4</MEAN_ELEMENT_THEORY></metadata><data><meanElements><EPOCH>2024-01-05T01:40:41.647872</EPOCH><MEAN_MOTION>13.10375356</MEAN_MOTION><ECCENTRICITY>.0001257</ECCENTRICITY><INCLINATION>87.8895</INCLINATION><RA_OF_ASC_NODE>213.8615</RA_OF_ASC_NODE><ARG_OF_PERICENTER>90.0627</ARG_OF_PERICENTER><MEAN_ANOMALY>270.0644</MEAN_ANOMALY></meanElements><tleParameters><EPHEMERIS_TYPE>0</EPHEMERIS_TYPE><CLASSIFICATION_TYPE>U</CLASSIFICATION_TYPE><NORAD_CAT_ID>45159</NORAD_CAT_ID><ELEMENT_SET_NO>999</ELEMENT_SET_NO><REV_AT_EPOCH>19184</REV_AT_EPOCH><BSTAR>-.18367E-2</BSTAR><MEAN_MOTION_DOT>-.628E-5</MEAN_MOTION_DOT><MEAN_MOTION_DDOT>0</MEAN_MOTION_DDOT></tleParameters></data></segment></body></omm>
<omm id="CCSDS_OMM_VERS" version="2.0">
<header><CREATION_DATE/><ORIGINATOR/></header><body><segment><metadata><OBJECT_NAME>ONEWEB-0057</OBJECT_NAME><OBJECT_ID>2020-008AF</OBJECT_ID><CENTER_NAME>EARTH</CENTER_NAME><REF_FRAME>TEME</REF_FRAME><TIME_SYSTEM>UTC</TIME_SYSTEM><MEAN_ELEMENT_THEORY>SGP4</MEAN_ELEMENT_THEORY></metadata><data><meanElements><EPOCH>2024-01-05T01:50:03.928704</EPOCH><MEAN_MOTION>13.10377999</MEAN_MOTION><ECCENTRICITY>.0001327</ECCENTRICITY><INCLINATION>87.8900</INCLINATION><RA_OF_ASC_NODE>213.8567</RA_OF_ASC_NODE><ARG_OF_PERICENTER>94.2212</ARG_OF_PERICENTER><MEAN_ANOMALY>265.9067</MEAN_ANOMALY></meanElements><tleParameters><EPHEMERIS_TYPE>0</EPHEMERIS_TYPE><CLASSIFICATION_TYPE>U</CLASSIFICATION_TYPE><NORAD_CAT_ID>45160</NORAD_CAT_ID><ELEMENT_SET_NO>999</ELEMENT_SET_NO><REV_AT_EPOCH>19174</REV_AT_EPOCH><BSTAR>-.87871E-3</BSTAR><MEAN_MOTION_DOT>-.294E-5</MEAN_MOTION_DOT><MEAN_MOTION_DDOT>0</MEAN_MOTION_DDOT></tleParameters></data></segment></body></omm>
<omm id="CCSDS_OMM_VERS" version="2.0">
<header><CREATION_DATE/><ORIGINATOR/></header><body><segment><metadata><OBJECT_NAME>ONEWEB-0058</OBJECT_NAME><OBJECT_ID>2020-008AG</OBJECT_ID><CENTER_NAME>EARTH</CENTER_NAME><REF_FRAME>TEME</REF_FRAME><TIME_SYSTEM>UTC</TIME_SYSTEM><MEAN_ELEMENT_THEORY>SGP4</MEAN_ELEMENT_THEORY></metadata><data><meanElements><EPOCH>2024-01-05T12:31:17.237856</EPOCH><MEAN_MOTION>13.10366767</MEAN_MOTION><ECCENTRICITY>.0001423</ECCENTRICITY><INCLINATION>87.8891</INCLINATION><RA_OF_ASC_NODE>213.8139</RA_OF_ASC_NODE><ARG_OF_PERICENTER>94.7365</ARG_OF_PERICENTER><MEAN_ANOMALY>265.3925</MEAN_ANOMALY></meanElements><tleParameters><EPHEMERIS_TYPE>0</EPHEMERIS_TYPE><CLASSIFICATION_TYPE>U</CLASSIFICATION_TYPE><NORAD_CAT_ID>45161</NORAD_CAT_ID><ELEMENT_SET_NO>999</ELEMENT_SET_NO><REV_AT_EPOCH>19213</REV_AT_EPOCH><BSTAR>-.19663E-2</BSTAR><MEAN_MOTION_DOT>-.674E-5</MEAN_MOTION_DOT><MEAN_MOTION_DDOT>0</MEAN_MOTION_DDOT></tleParameters></data></segment></body></omm>
<omm id="CCSDS_OMM_VERS" version="2.0">
<header><CREATION_DATE/><ORIGINATOR/></header><body><segment><metadata><OBJECT_NAME>ONEWEB-0059</OBJECT_NAME><OBJECT_ID>2020-008AH</OBJECT_ID><CENTER_NAME>EARTH</CENTER_NAME><REF_FRAME>TEME</REF_FRAME><TIME_SYSTEM>UTC</TIME_SYSTEM><MEAN_ELEMENT_THEORY>SGP4</MEAN_ELEMENT_THEORY></metadata><data><meanElements><EPOCH>2024-01-05T12:26:24.856800</EPOCH><MEAN_MOTION>13.10371564</MEAN_MOTION><ECCENTRICITY>.0001521</ECCENTRICITY><INCLINATION>87.8896</INCLINATION><RA_OF_ASC_NODE>213.7862</RA_OF_ASC_NODE><ARG_OF_PERICENTER>92.9372</ARG_OF_PERICENTER><MEAN_ANOMALY>267.1929</MEAN_ANOMALY></meanElements><tleParameters><EPHEMERIS_TYPE>0</EPHEMERIS_TYPE><CLASSIFICATION_TYPE>U</CLASSIFICATION_TYPE><NORAD_CAT_ID>45162</NORAD_CAT_ID><ELEMENT_SET_NO>999</ELEMENT_SET_NO><REV_AT_EPOCH>19202</REV_AT_EPOCH><BSTAR>-.17921E-2</BSTAR><MEAN_MOTION_DOT>-.613E-5</MEAN_MOTION_DOT><MEAN_MOTION_DDOT>0</MEAN_MOTION_DDOT></tleParameters></data></segment></body></omm>
<omm id="CCSDS_OMM_VERS" version="2.0">
<header><CREATION_DATE/><ORIGINATOR/></header><body><segment><metadata><OBJECT_NAME>ONEWEB-0062</OBJECT_NAME><OBJECT_ID>2020-008AJ</OBJECT_ID><CENTER_NAME>EARTH</CENTER_NAME><REF_FRAME>TEME</REF_FRAME><TIME_SYSTEM>UTC</TIME_SYSTEM><MEAN_ELEMENT_THEORY>SGP4</MEAN_ELEMENT_THEORY></metadata><data><meanElements><EPOCH>2024-01-04T22:26:33.893664</EPOCH><MEAN_MOTION>13.10375457</MEAN_MOTION><ECCENTRICITY>.0001429</ECCENTRICITY><INCLINATION>87.8898</INCLINATION><RA_OF_ASC_NODE>213.8886</RA_OF_ASC_NODE><ARG_OF_PERICENTER>83.8845</ARG_OF_PERICENTER><MEAN_ANOMALY>276.2445</MEAN_ANOMALY></meanElements><tleParameters><EPHEMERIS_TYPE>0</EPHEMERIS_TYPE><CLASSIFICATION_TYPE>U</CLASSIFICATION_TYPE><NORAD_CAT_ID>45163</NORAD_CAT_ID><ELEMENT_SET_NO>999</ELEMENT_SET_NO><REV_AT_EPOCH>19107</REV_AT_EPOCH><BSTAR>.30981E-3</BSTAR><MEAN_MOTION_DOT>.121E-5</MEAN_MOTION_DOT><MEAN_MOTION_DDOT>0</MEAN_MOTION_DDOT></tleParameters></data></segment></body></omm>
<omm id="CCSDS_OMM_VERS" version="2.0">
<header><CREATION_DATE/><ORIGINATOR/></header><body><segment><metadata><OBJECT_NAME>ONEWEB-0065</OBJECT_NAME><OBJECT_ID>2020-008AK</OBJECT_ID><CENTER_NAME>EARTH</CENTER_NAME><REF_FRAME>TEME</REF_FRAME><TIME_SYSTEM>UTC</TIME_SYSTEM><MEAN_ELEMENT_THEORY>SGP4</MEAN_ELEMENT_THEORY></metadata><data><meanElements><EPOCH>2024-01-04T12:43:59.246112</EPOCH><MEAN_MOTION>13.10373063</MEAN_MOTION><ECCENTRICITY>.000131</ECCENTRICITY><INCLINATION>87.8901</INCLINATION><RA_OF_ASC_NODE>213.9676</RA_OF_ASC_NODE><ARG_OF_PERICENTER>88.1697</ARG_OF_PERICENTER><MEAN_ANOMALY>271.9580</MEAN_ANOMALY></meanElements><tleParameters><EPHEMERIS_TYPE>0</EPHEMERIS_TYPE><CLASSIFICATION_TYPE>U</CLASSIFICATION_TYPE><NORAD_CAT_ID>45164</NORAD_CAT_ID><ELEMENT_SET_NO>999</ELEMENT_SET_NO><REV_AT_EPOCH>19145</REV_AT_EPOCH><BSTAR>-.19229E-2</BSTAR><MEAN_MOTION_DOT>-.659E-5</MEAN_MOTION_DOT><MEAN_MOTION_DDOT>0</MEAN_MOTION_DDOT></tleParameters></data></segment></body></omm>

</ndm>
