ONEWEB-0053             
1 45157U 20008AC  24004.59553952 -.00000484  00000+0 -14217-2 0  9999
2 45157  87.8893 213.9757 0001266  86.1929 273.9343 13.10369044190755
ONEWEB-0054             
1 45158U 20008AD  24004.93673636  .00000355  00000+0  97993-3 0  9998
2 45158  87.8897 213.8934 0001411  85.7457 274.3832 13.10376194190919
ONEWEB-0056             
1 45159U 20008AE  24005.06992648 -.00000628  00000+0 -18367-2 0  9993
2 45159  87.8895 213.8615 0001257  90.0627 270.0644 13.10375356191846
ONEWEB-0057             
1 45160U 20008AF  24005.07643436 -.00000294  00000+0 -87871-3 0  9990
2 45160  87.8900 213.8567 0001327  94.2212 265.9067 13.10377999191741
ONEWEB-0058             
1 45161U 20008AG  24005.52172729 -.00000674  00000+0 -19663-2 0  9998
2 45161  87.8891 213.8139 0001423  94.7365 265.3925 13.10366767192139
ONEWEB-0059             
1 45162U 20008AH  24005.51834325 -.00000613  00000+0 -17921-2 0  9993
2 45162  87.8896 213.7862 0001521  92.9372 267.1929 13.10371564192027
ONEWEB-0062             
1 45163U 20008AJ  24004.93511451  .00000121  00000+0  30981-3 0  9995
2 45163  87.8898 213.8886 0001429  83.8845 276.2445 13.10375457191071
ONEWEB-0065             
1 45164U 20008AK  24004.53054683 -.00000659  00000+0 -19229-2 0  9990
2 45164  87.8901 213.9676 0001310  88.1697 271.9580 13.10373063191452
